{"type": "FeatureCollection", "features": [ {"type": "Feature", "properties": {"norad_id": 33153, "name": "INTELSAT 25 (IS-25)", "group": "intelsat", "lat": 2.2082105447609983, "lon": 161.49981278068284, "alt_km": 35792.14891986115, "timestamp": "2025-12-19T06:59:43.571566+00:00", "meta": {"OBJECT_NAME": "INTELSAT 25 (IS-25)", "OBJECT_ID": "2008-034A", "EPOCH": "2025-12-18T19:59:38.625216", "MEAN_MOTION": 1.00270567, "ECCENTRICITY": 0.00047972, "INCLINATION": 2.2426, "RA_OF_ASC_NODE": 82.5851, "ARG_OF_PERICENTER": 186.0654, "MEAN_ANOMALY": 87.447, "EPHEMERIS_TYPE": 0, "CLASSIFICATION_TYPE": "U", "NORAD_CAT_ID": 33153, "ELEMENT_SET_NO": 999, "REV_AT_EPOCH": 6388, "BSTAR": 0, "MEAN_MOTION_DOT": -2.01e-06, "MEAN_MOTION_DDOT": 0}, "tle": {"line1": "1 33153U 08034A   25352.83308594 -.00000201  00000+0  00000+0 0  9999", "line2": "2 33153   2.2426  82.5851 0004797 186.0654  87.4470  1.00270567 63882"}}, "geometry": {"type": "Point", "coordinates": [161.49981278068284, 2.2082105447609983]}}, {"type": "Feature", "properties": {"norad_id": 33376, "name": "GALAXY 19 (G-19)", "group": "intelsat", "lat": 0.020158522189229276, "lon": 96.06088701171824, "alt_km": 35796.708245611, "timestamp": "2025-12-19T06:59:43.571578+00:00", "meta": {"OBJECT_NAME": "GALAXY 19 (G-19)", "OBJECT_ID": "2008-045A", "EPOCH": "2025-12-18T19:40:55.418304", "MEAN_MOTION": 1.002717, "ECCENTRICITY": 0.00025073, "INCLINATION": 0.0183, "RA_OF_ASC_NODE": 288.4873, "ARG_OF_PERICENTER": 342.8258, "MEAN_ANOMALY": 14.5961, "EPHEMERIS_TYPE": 0, "CLASSIFICATION_TYPE": "U", "NORAD_CAT_ID": 33376, "ELEMENT_SET_NO": 999, "REV_AT_EPOCH": 6309, "BSTAR": 0, "MEAN_MOTION_DOT": -1.14e-06, "MEAN_MOTION_DDOT": 0}, "tle": {"line1": "1 33376U 08045A   25352.82008586 -.00000114  00000+0  00000+0 0  9998", "line2": "2 33376   0.0183 288.4873 0002507 342.8258  14.5961  1.00271700 63094"}}, "geometry": {"type": "Point", "coordinates": [96.06088701171824, 0.020158522189229276]}}, {"type": "Feature", "properties": {"norad_id": 35493, "name": "FM-5", "group": "intelsat", "lat": 0.01864007809774682, "lon": 106.90834122196682, "alt_km": 35783.540376362, "timestamp": "2025-12-19T06:59:43.571590+00:00", "meta": {"OBJECT_NAME": "FM-5", "OBJECT_ID": "2009-034A", "EPOCH": "2025-12-18T19:44:02.618592", "MEAN_MOTION": 1.00270729, "ECCENTRICITY": 0.00010193, "INCLINATION": 0.0192, "RA_OF_ASC_NODE": 295.8736, "ARG_OF_PERICENTER": 219.1281, "MEAN_ANOMALY": 142.545, "EPHEMERIS_TYPE": 0, "CLASSIFICATION_TYPE": "U", "NORAD_CAT_ID": 35493, "ELEMENT_SET_NO": 999, "REV_AT_EPOCH": 4483, "BSTAR": 0, "MEAN_MOTION_DOT": -1.75e-06, "MEAN_MOTION_DDOT": 0}, "tle": {"line1": "1 35493U 09034A   25352.82225253 -.00000175  00000+0  00000+0 0  9998", "line2": "2 35493   0.0192 295.8736 0001019 219.1281 142.5450  1.00270729 44831"}}, "geometry": {"type": "Point", "coordinates": [106.90834122196682, 0.01864007809774682]}}, {"type": "Feature", "properties": {"norad_id": 36097, "name": "INTELSAT 14 (IS-14)", "group": "intelsat", "lat": 0.011224495150896456, "lon": 148.0530041567797, "alt_km": 35792.846692515035, "timestamp": "2025-12-19T06:59:43.571602+00:00", "meta": {"OBJECT_NAME": "INTELSAT 14 (IS-14)", "OBJECT_ID": "2009-064A", "EPOCH": "2025-12-18T19:55:46.495200", "MEAN_MOTION": 1.00271612, "ECCENTRICITY": 0.0002437, "INCLINATION": 0.0117, "RA_OF_ASC_NODE": 341.287, "ARG_OF_PERICENTER": 297.1276, "MEAN_ANOMALY": 63.229, "EPHEMERIS_TYPE": 0, "CLASSIFICATION_TYPE": "U", "NORAD_CAT_ID": 36097, "ELEMENT_SET_NO": 999, "REV_AT_EPOCH": 5879, "BSTAR": 0, "MEAN_MOTION_DOT": -2.48e-06, "MEAN_MOTION_DDOT": 0}, "tle": {"line1": "1 36097U 09064A   25352.83039925 -.00000248  00000+0  00000+0 0  9993", "line2": "2 36097   0.0117 341.2870 0002437 297.1276  63.2290  1.00271612 58792"}}, "geometry": {"type": "Point", "coordinates": [148.0530041567797, 0.011224495150896456]}}, {"type": "Feature", "properties": {"norad_id": 36106, "name": "INTELSAT 15 (IS-15)", "group": "intelsat", "lat": -0.04402061117842521, "lon": -81.77709970966981, "alt_km": 35776.93952995493, "timestamp": "2025-12-19T06:59:43.571613+00:00", "meta": {"OBJECT_NAME": "INTELSAT 15 (IS-15)", "OBJECT_ID": "2009-067A", "EPOCH": "2025-12-18T22:15:40.597344", "MEAN_MOTION": 1.00272402, "ECCENTRICITY": 0.0002124, "INCLINATION": 0.0179, "RA_OF_ASC_NODE": 357.1967, "ARG_OF_PERICENTER": 280.3625, "MEAN_ANOMALY": 229.3026, "EPHEMERIS_TYPE": 0, "CLASSIFICATION_TYPE": "U", "NORAD_CAT_ID": 36106, "ELEMENT_SET_NO": 999, "REV_AT_EPOCH": 3942, "BSTAR": 0, "MEAN_MOTION_DOT": -1.6e-06, "MEAN_MOTION_DDOT": 0}, "tle": {"line1": "1 36106U 09067A   25352.92755321 -.00000160  00000+0  00000+0 0  9995", "line2": "2 36106   0.0179 357.1967 0002124 280.3625 229.3026  1.00272402 39428"}}, "geometry": {"type": "Point", "coordinates": [-81.77709970966981, -0.04402061117842521]}}, {"type": "Feature", "properties": {"norad_id": 36131, "name": "DIRECTV 12", "group": "intelsat", "lat": 0.014358671342759572, "lon": 90.3533247941713, "alt_km": 35786.10895768064, "timestamp": "2025-12-19T06:59:43.571625+00:00", "meta": {"OBJECT_NAME": "DIRECTV 12", "OBJECT_ID": "2009-075A", "EPOCH": "2025-12-18T20:43:10.822080", "MEAN_MOTION": 1.00271221, "ECCENTRICITY": 4.242e-05, "INCLINATION": 0.0364, "RA_OF_ASC_NODE": 131.9635, "ARG_OF_PERICENTER": 232.6466, "MEAN_ANOMALY": 291.1917, "EPHEMERIS_TYPE": 0, "CLASSIFICATION_TYPE": "U", "NORAD_CAT_ID": 36131, "ELEMENT_SET_NO": 999, "REV_AT_EPOCH": 4474, "BSTAR": 0, "MEAN_MOTION_DOT": -7.8e-07, "MEAN_MOTION_DDOT": 0}, "tle": {"line1": "1 36131U 09075A   25352.86331970 -.00000078  00000+0  00000+0 0  9993", "line2": "2 36131   0.0364 131.9635 0000424 232.6466 291.1917  1.00271221 44741"}}, "geometry": {"type": "Point", "coordinates": [90.3533247941713, 0.014358671342759572]}}, {"type": "Feature", "properties": {"norad_id": 36397, "name": "INTELSAT 16 (IS-16)", "group": "intelsat", "lat": 0.02666879488919478, "lon": 116.8614459481509, "alt_km": 35792.814942654484, "timestamp": "2025-12-19T06:59:43.571637+00:00", "meta": {"OBJECT_NAME": "INTELSAT 16 (IS-16)", "OBJECT_ID": "2010-006A", "EPOCH": "2025-12-18T19:46:54.844032", "MEAN_MOTION": 1.00272314, "ECCENTRICITY": 0.00018235, "INCLINATION": 0.0062, "RA_OF_ASC_NODE": 348.6474, "ARG_OF_PERICENTER": 280.5374, "MEAN_ANOMALY": 39.0331, "EPHEMERIS_TYPE": 0, "CLASSIFICATION_TYPE": "U", "NORAD_CAT_ID": 36397, "ELEMENT_SET_NO": 999, "REV_AT_EPOCH": 5784, "BSTAR": 0, "MEAN_MOTION_DOT": -2.2e-06, "MEAN_MOTION_DDOT": 0}, "tle": {"line1": "1 36397U 10006A   25352.82424588 -.00000220  00000+0  00000+0 0  9996", "line2": "2 36397   0.0062 348.6474 0001823 280.5374  39.0331  1.00272314 57840"}}, "geometry": {"type": "Point", "coordinates": [116.8614459481509, 0.02666879488919478]}}, {"type": "Feature", "properties": {"norad_id": 37185, "name": "XM-5", "group": "intelsat", "lat": 0.03801669015150136, "lon": 77.84901246948199, "alt_km": 35782.74606150627, "timestamp": "2025-12-19T06:59:43.571648+00:00", "meta": {"OBJECT_NAME": "XM-5", "OBJECT_ID": "2010-053A", "EPOCH": "2025-12-18T20:22:12.372384", "MEAN_MOTION": 1.00271564, "ECCENTRICITY": 0.00020077, "INCLINATION": 0.0627, "RA_OF_ASC_NODE": 271.9192, "ARG_OF_PERICENTER": 232.5831, "MEAN_ANOMALY": 133.5627, "EPHEMERIS_TYPE": 0, "CLASSIFICATION_TYPE": "U", "NORAD_CAT_ID": 37185, "ELEMENT_SET_NO": 999, "REV_AT_EPOCH": 5567, "BSTAR": 0, "MEAN_MOTION_DOT": 2e-08, "MEAN_MOTION_DDOT": 0}, "tle": {"line1": "1 37185U 10053A   25352.84875431  .00000002  00000+0  00000+0 0  9990", "line2": "2 37185   0.0627 271.9192 0002007 232.5831 133.5627  1.00271564 55671"}}, "geometry": {"type": "Point", "coordinates": [77.84901246948199, 0.03801669015150136]}}, {"type": "Feature", "properties": {"norad_id": 37238, "name": "INTELSAT 17 (IS-17)", "group": "intelsat", "lat": 0.004984730703185718, "lon": -100.95002325429441, "alt_km": 35776.17953449979, "timestamp": "2025-12-19T06:59:43.571660+00:00", "meta": {"OBJECT_NAME": "INTELSAT 17 (IS-17)", "OBJECT_ID": "2010-065B", "EPOCH": "2025-12-18T22:12:38.740896", "MEAN_MOTION": 1.00270741, "ECCENTRICITY": 0.00027019, "INCLINATION": 0.007, "RA_OF_ASC_NODE": 107.818, "ARG_OF_PERICENTER": 178.517, "MEAN_ANOMALY": 200.6105, "EPHEMERIS_TYPE": 0, "CLASSIFICATION_TYPE": "U", "NORAD_CAT_ID": 37238, "ELEMENT_SET_NO": 999, "REV_AT_EPOCH": 5144, "BSTAR": 0, "MEAN_MOTION_DOT": 2.3e-07, "MEAN_MOTION_DDOT": 0}, "tle": {"line1": "1 37238U 10065B   25352.92544839  .00000023  00000+0  00000+0 0  9999", "line2": "2 37238   0.0070 107.8180 0002701 178.5170 200.6105  1.00270741 51446"}}, "geometry": {"type": "Point", "coordinates": [-100.95002325429441, 0.004984730703185718]}}, {"type": "Feature", "properties": {"norad_id": 37392, "name": "INTELSAT 28 (IS-28)", "group": "intelsat", "lat": 1.3080931663920623, "lon": 161.3332209937187, "alt_km": 35791.69311838535, "timestamp": "2025-12-19T06:59:43.571672+00:00", "meta": {"OBJECT_NAME": "INTELSAT 28 (IS-28)", "OBJECT_ID": "2011-016A", "EPOCH": "2025-12-18T19:59:31.136928", "MEAN_MOTION": 1.0027042, "ECCENTRICITY": 0.0003678, "INCLINATION": 1.3395, "RA_OF_ASC_NODE": 84.9911, "ARG_OF_PERICENTER": 186.5384, "MEAN_ANOMALY": 84.3542, "EPHEMERIS_TYPE": 0, "CLASSIFICATION_TYPE": "U", "NORAD_CAT_ID": 37392, "ELEMENT_SET_NO": 999, "REV_AT_EPOCH": 5147, "BSTAR": 0, "MEAN_MOTION_DOT": -2.01e-06, "MEAN_MOTION_DDOT": 0}, "tle": {"line1": "1 37392U 11016A   25352.83299927 -.00000201  00000+0  00000+0 0  9991", "line2": "2 37392   1.3395  84.9911 0003678 186.5384  84.3542  1.00270420 51477"}}, "geometry": {"type": "Point", "coordinates": [161.3332209937187, 1.3080931663920623]}}]}